[{"OBJECT_NAME":"OSCAR 31","OBJECT_ID":"1988-074B","EPOCH":"2026-03-29T05:10:41.867040","MEAN_MOTION":13.42600997,"ECCENTRICITY":0.0092678,"INCLINATION":90.0461,"RA_OF_ASC_NODE":20.9911,"ARG_OF_PERICENTER":297.5412,"MEAN_ANOMALY":229.0393,"EPHEMERIS_TYPE":0,"CLASSIFICATION_TYPE":"U","NORAD_CAT_ID":19420,"ELEMENT_SET_NO":999,"REV_AT_EPOCH":84079,"BSTAR":0.00012076,"MEAN_MOTION_DOT":7.8e-7,"MEAN_MOTION_DDOT":0}]
