OSCAR 31                
1 19420U 88074B   26088.21576235  .00000078  00000+0  12076-3 0  9991
2 19420  90.0461  20.9911 0092678 297.5412 229.0393 13.42600997840799
